NORAD_CAT_ID,OBJECT_NAME,OBJECT_TYPE,EPOCH,MEAN_MOTION,ECCENTRICITY,INCLINATION,RA_OF_ASC_NODE,ARG_OF_PERICENTER,MEAN_ANOMALY,BSTAR,MEAN_MOTION_DOT,MEAN_MOTION_DDOT,TLE_LINE0,TLE_LINE1,TLE_LINE2,SEMIMAJOR_AXIS,PERIOD,APOGEE,PERIGEE,DECAYED
51742.0,STARLINK-3521,PAYLOAD,2022-08-31 14:00:01,15.08828331,0.0001759,53.2161,332.6665,49.4345,354.0725,0.00043173,6.587e-05,0.0,0 STARLINK-3521,1 51742U 22016AE  22243.58334491  .00006587  00000-0  43173-3 0  9997,2 51742  53.2161 332.6665 0001759  49.4345 354.0725 15.08828331  1300,6917.916,95.438,540.998,538.564,0.0
51742.0,STARLINK-3521,PAYLOAD,2022-08-31 22:00:00,15.0886114,0.0001662,53.2159,331.1690000000001,47.9744,7.1172,-0.0026219,-0.00041798,0.0,0 STARLINK-3521,1 51742U 22016AE  22243.91667824 -.00041798  00000-0 -26219-2 0  9999,2 51742  53.2159 331.1690 0001662  47.9744   7.1172 15.08861140 30598,6917.816,95.436,540.831,538.531,0.0
51742.0,STARLINK-3521,PAYLOAD,2022-09-01 14:00:01,15.08816536,0.0001748,53.2161,328.1771,45.5612,32.7822,0.00088618,0.00013835,0.0,0 STARLINK-3521,1 51742U 22016AE  22244.58335648  .00013835  00000-0  88618-3 0  9990,2 51742  53.2161 328.1771 0001748  45.5612  32.7822 15.08816536 30696,6917.9519999999975,95.439,541.026,538.6080000000002,0.0
51742.0,STARLINK-3521,PAYLOAD,2022-09-01 22:00:00,15.08846289,0.0001666999999999,53.2162,326.6796,45.8073,44.0481,-0.0015136,-0.000243,0.0,0 STARLINK-3521,1 51742U 22016AE  22244.91667824 -.00024300  00000-0 -15136-2 0  9996,2 51742  53.2162 326.6796 0001667  45.8073  44.0481 15.08846289  1302,6917.861,95.437,540.879,538.573,0.0
51742.0,STARLINK-3521,PAYLOAD,2022-09-02 14:00:01,15.08840826,0.0001794,53.2164,323.6877,43.7552,69.2871,-0.00063689,-0.0001041,0.0,0 STARLINK-3521,1 51742U 22016AE  22245.58334491 -.00010410  00000-0 -63689-3 0  9995,2 51742  53.2164 323.6877 0001794  43.7552  69.2871 15.08840826  1304,6917.878000000002,95.438,540.984,538.502,0.0
51742.0,STARLINK-3521,PAYLOAD,2022-09-02 16:00:00,15.08831059,0.0001783,53.2164,323.3137,41.6921,164.253,0.00050466,7.751e-05,0.0,0 STARLINK-3521,1 51742U 22016AE  22245.66667824  .00007751  00000-0  50466-3 0  9994,2 51742  53.2164 323.3137 0001783  41.6921 164.2530 15.08831059 30853,6917.908,95.438,541.006,538.539,0.0
51742.0,STARLINK-3521,PAYLOAD,2022-09-02 22:00:01,15.08837907,0.0001628,53.2165,322.19,43.3399,81.3604,-0.0019186,-0.00030691,0.0,0 STARLINK-3521,1 51742U 22016AE  22245.91668981 -.00030691  00000-0 -19186-2 0  9991,2 51742  53.2165 322.1900 0001628  43.3399  81.3604 15.08837907  1302,6917.887,95.438,540.878,538.626,0.0
51742.0,STARLINK-3521,PAYLOAD,2022-09-03 14:00:01,15.08822447,0.0001783,53.2168,319.1983,41.2292,106.5825,0.0021033,0.00033329,0.0,0 STARLINK-3521,1 51742U 22016AE  22246.58334491  .00033329  00000-0  21033-2 0  9994,2 51742  53.2168 319.1983 0001783  41.2292 106.5825 15.08822447  1301,6917.934,95.439,541.033,538.566,0.0
51742.0,STARLINK-3521,PAYLOAD,2022-09-03 22:00:00,15.08853886,0.0001644,53.2167,317.7006,43.3524,116.0473,-0.00083531,-0.00013563,0.0,0 STARLINK-3521,1 51742U 22016AE  22246.91667824 -.00013563  00000-0 -83531-3 0  9992,2 51742  53.2167 317.7006 0001644  43.3524 116.0473 15.08853886  1303,6917.8380000000025,95.437,540.84,538.566,0.0
51742.0,STARLINK-3521,PAYLOAD,2022-09-04 14:00:01,15.08849142,0.0001838,53.2168,314.709,41.9702,140.7275,-0.00039202,-6.523e-05,0.0,0 STARLINK-3521,1 51742U 22016AE  22247.58335648 -.00006523  00000-0 -39202-3 0  9996,2 51742  53.2168 314.7090 0001838  41.9702 140.7275 15.08849142  1305,6917.852,95.437,540.989,538.446,0.0
51742.0,STARLINK-3521,PAYLOAD,2022-09-04 20:00:01,15.08873437,0.0001761,53.2166,313.5857,43.3755,57.9698,-0.0039881,-0.0006326,0.0,0 STARLINK-3521,1 51742U 22016AE  22247.83334491 -.00063260  00000-0 -39881-2 0  9992,2 51742  53.2166 313.5857 0001761  43.3755  57.9698 15.08873437  1302,6917.778,95.435,540.861,538.425,0.0
51742.0,STARLINK-3521,PAYLOAD,2022-09-05 14:00:01,15.08842273,0.0001821,53.2166,310.22,42.0134,175.4453,6.0583e-05,6.76e-06,0.0,0 STARLINK-3521,1 51742U 22016AE  22248.58334491  .00000676  00000-0  60583-4 0  9990,2 51742  53.2166 310.2200 0001821  42.0134 175.4453 15.08842273  1301,6917.873000000001,95.437,540.998,538.479,0.0
51742.0,STARLINK-3521,PAYLOAD,2022-09-05 22:00:00,15.0883765,0.0001643,53.2164,308.722,45.199,183.8629,-0.0036974,-0.0005865,0.0,0 STARLINK-3521,1 51742U 22016AE  22248.91667824 -.00058650  00000-0 -36974-2 0  9998,2 51742  53.2164 308.7220 0001643  45.1990 183.8629 15.08837650 31347,6917.888000000001,95.438,540.889,538.616,0.0
51742.0,STARLINK-3521,PAYLOAD,2022-09-06 12:00:00,15.087984400000002,0.0001776,53.2161,306.1051,42.4905,116.8028,0.0009705,0.00015174,0.0,0 STARLINK-3521,1 51742U 22016AE  22249.50001157  .00015174  00000-0  97050-3 0  9990,2 51742  53.2161 306.1051 0001776  42.4905 116.8028 15.08798440 31433,6918.007,95.44,541.101,538.644,0.0
51742.0,STARLINK-3521,PAYLOAD,2022-09-06 14:00:01,15.08785536,0.0001803,53.216,305.7313,41.0455,211.1395,0.0031379,0.00049931,0.0,0 STARLINK-3521,1 51742U 22016AE  22249.58334491  .00049931  00000-0  31379-2 0  9997,2 51742  53.2160 305.7313 0001803  41.0455 211.1395 15.08785536  1305,6918.047,95.441,541.159,538.665,0.0
51742.0,STARLINK-3521,PAYLOAD,2022-09-06 22:00:00,15.08809581,0.0001641,53.2158,304.2333,44.5596,219.1784,0.00057747,8.907e-05,0.0,0 STARLINK-3521,1 51742U 22016AE  22249.91667824  .00008907  00000-0  57747-3 0  9999,2 51742  53.2158 304.2333 0001641  44.5596 219.1784 15.08809581  1309,6917.973000000001,95.439,540.974,538.703,0.0
51742.0,STARLINK-3521,PAYLOAD,2022-09-07 14:00:01,15.08803159,0.0001853,53.2154,301.2425,41.2024,245.6769,0.0031265999999999,0.00049774,0.0,0 STARLINK-3521,1 51742U 22016AE  22250.58334491  .00049774  00000-0  31266-2 0  9999,2 51742  53.2154 301.2425 0001853  41.2024 245.6769 15.08803159 31595,6917.993,95.44,541.14,538.576,0.0
51742.0,STARLINK-3521,PAYLOAD,2022-09-07 22:00:00,15.08822971,0.0001709,53.2153,299.7444,44.7724,253.6844,0.001062,0.00016646,0.0,0 STARLINK-3521,1 51742U 22016AE  22250.91667824  .00016646  00000-0  10620-2 0  9998,2 51742  53.2153 299.7444 0001709  44.7724 253.6844 15.08822971  1303,6917.932,95.439,540.98,538.615,0.0
51742.0,STARLINK-3521,PAYLOAD,2022-09-08 06:00:00,15.08854464,0.0001771999999999,53.2152,298.2484,46.7219,263.3134,-0.0010288,-0.00016631,0.0,0 STARLINK-3521,1 51742U 22016AE  22251.25001157 -.00016631  00000-0 -10288-2 0  9993,2 51742  53.2152 298.2484 0001772  46.7219 263.3134 15.08854464 31698,6917.8359999999975,95.437,540.927,538.475,0.0
51742.0,STARLINK-3521,PAYLOAD,2022-09-08 14:00:01,15.08823626,0.0001943999999999,53.215,296.7533,41.0604,280.5829,0.0030846,0.00049124,0.0,0 STARLINK-3521,1 51742U 22016AE  22251.58334491  .00049124  00000-0  30846-2 0  9992,2 51742  53.2150 296.7533 0001944  41.0604 280.5829 15.08823626  1304,6917.93,95.439,541.14,538.451,0.0
51742.0,STARLINK-3521,PAYLOAD,2022-09-09 00:00:02,15.08839669,0.0001801,53.2149,294.8806,46.5201,19.6963,0.0019062999999999,0.00030181,0.0,0 STARLINK-3521,1 51742U 22016AE  22252.00002315  .00030181  00000-0  19063-2 0  9998,2 51742  53.2149 294.8806 0001801  46.5201  19.6963 15.08839669  1303,6917.880999999999,95.438,540.992,538.5,0.0
51742.0,STARLINK-3521,PAYLOAD,2022-09-09 06:00:00,15.08873257,0.0001948,53.215,293.7591,47.812,297.0415,-0.0034671999999999,-0.00055098,0.0,0 STARLINK-3521,1 51742U 22016AE  22252.25001157 -.00055098  00000-0 -34672-2 0  9997,2 51742  53.2150 293.7591 0001948  47.8120 297.0415 15.08873257 31847,6917.779,95.435,540.991,538.2959999999998,0.0
51742.0,STARLINK-3521,PAYLOAD,2022-09-09 14:00:01,15.088205,0.0002128,53.2148,292.2638,43.8209,312.647,0.0030096999999999,0.00047912,0.0,0 STARLINK-3521,1 51742U 22016AE  22252.58334491  .00047912  00000-0  30097-2 0  9994,2 51742  53.2148 292.2638 0002128  43.8209 312.6470 15.08820500  1301,6917.94,95.439,541.2769999999998,538.3330000000002,0.0
51742.0,STARLINK-3521,PAYLOAD,2022-09-09 22:00:00,15.08834152,0.0001947,53.215,290.7656,47.9416,320.1248,0.0014558,0.00022953,0.0,0 STARLINK-3521,1 51742U 22016AE  22252.91667824  .00022953  00000-0  14558-2 0  9992,2 51742  53.2150 290.7656 0001947  47.9416 320.1248 15.08834152  1305,6917.898,95.438,541.11,538.4159999999998,0.0
51742.0,STARLINK-3521,PAYLOAD,2022-09-10 14:00:01,15.08816213,0.0002117,53.2149,287.7742,41.916,349.3465,0.0025733,0.00040878,0.0,0 STARLINK-3521,1 51742U 22016AE  22253.58334491  .00040878  00000-0  25733-2 0  9990,2 51742  53.2149 287.7742 0002117  41.9160 349.3465 15.08816213  1307,6917.953,95.439,541.283,538.354,0.0
51742.0,STARLINK-3521,PAYLOAD,2022-09-10 22:00:00,15.08819893,0.0001939,53.215,286.2759,47.1363,355.7209,0.0025896,0.00041144,0.0,0 STARLINK-3521,1 51742U 22016AE  22253.91667824  .00041144  00000-0  25896-2 0  9993,2 51742  53.2150 286.2759 0001939  47.1363 355.7209 15.08819893  1309,6917.941999999999,95.439,541.148,538.465,0.0
51742.0,STARLINK-3521,PAYLOAD,2022-09-11 06:00:00,15.0886483,0.0002045999999999,53.2154,284.7805,46.522,7.9201,-0.0016117999999999,-0.00025866,0.0,0 STARLINK-3521,1 51742U 22016AE  22254.25001157 -.00025866  00000-0 -16118-2 0  9994,2 51742  53.2154 284.7805 0002046  46.5220   7.9201 15.08864830 32159,6917.804,95.436,541.085,538.254,0.0
51742.0,STARLINK-3521,PAYLOAD,2022-09-11 14:00:01,15.08802917,0.0001986,53.2148,283.2847,42.0663,23.8838,0.0022628,0.00035872,0.0,0 STARLINK-3521,1 51742U 22016AE  22254.58334491  .00035872  00000-0  22628-2 0  9999,2 51742  53.2148 283.2847 0001986  42.0663  23.8838 15.08802917 32203,6917.994000000002,95.44,541.2330000000002,538.485,0.0
51742.0,STARLINK-3521,PAYLOAD,2022-09-11 22:00:00,15.08798856,0.0001781,53.215,281.7865,47.8978,29.6242,0.0028075,0.00044626,0.0,0 STARLINK-3521,1 51742U 22016AE  22254.91667824  .00044626  00000-0  28075-2 0  9994,2 51742  53.2150 281.7865 0001781  47.8978  29.6242 15.08798856  1300,6918.005999999999,95.44,541.1030000000002,538.639,0.0
